STARLINK-11152 [DTC]    
1 60194U 24124M   25243.57301061 -.00000648  00000+0 -49331-6 0  9997
2 60194  53.1582  18.4948 0000939  58.8744 301.2366 15.69699825 67865
STARLINK-11193 [DTC]    
1 60195U 24124N   25243.56810462 -.00001312  00000+0 -59830-5 0  9990
2 60195  53.1579  18.4603 0000480  52.1922 307.9139 15.69701371 66675
STARLINK-31869          
1 60196U 24124P   25243.40637584  .00000242  00000+0  20322-4 0  9998
2 60196  53.1600 126.2610 0001346  86.2413 273.8742 15.30186805 65163
STARLINK-32023          
1 60197U 24124Q   25243.37588260 -.00000394  00000+0 -11741-5 0  9997
2 60197  53.1603 126.7800 0000973 103.2696 256.8414 15.30193757 65151
STARLINK-32046          
1 60198U 24124R   25242.96078406 -.00000859  00000+0 -16874-4 0  9995
2 60198  53.1598 128.4527 0001250  72.1172 287.9965 15.30184153 66328
STARLINK-32049          
1 60199U 24124S   25242.97450119 -.00000011  00000+0  11768-4 0  9998
2 60199  53.1609 128.5426 0001866 139.4899 220.6241 15.30181681 66321
STARLINK-32002          
1 60200U 24124T   25243.09246418 -.00000047  00000+0  10541-4 0  9997
2 60200  53.1597 127.8529 0001165  76.0249 284.0882 15.30189846 65115
STARLINK-32020          
1 60201U 24124U   25243.39160867 -.00000702  00000+0 -11605-4 0  9995
2 60201  53.1600 126.1646 0000931 102.5532 257.5573 15.30168843 65164
STARLINK-32041          
1 60202U 24124V   25243.08929391  .00003699  00000+0  13705-3 0  9995
2 60202  53.1603 127.8323 0000893  74.5803 285.5296 15.30178527 66315
STARLINK-32138          
1 60255U 24131A   25243.40718142  .00001513  00000+0  63206-4 0  9992
2 60255  53.1599 216.4074 0002120  86.2742 273.8501 15.30205426 62888
STARLINK-32212          
1 60256U 24131B   25243.41984984  .00000178  00000+0  18136-4 0  9991
2 60256  53.1593 216.4984 0001169  82.4136 277.6998 15.30197385 62583
STARLINK-32166          
1 60257U 24131C   25243.23023658  .00001119  00000+0  49932-4 0  9998
2 60257  53.1595 217.4354 0001205  94.5439 265.5700 15.30184410 62558
STARLINK-32200          
1 60258U 24131D   25243.41773592  .00001255  00000+0  54484-4 0  9997
2 60258  53.1593 216.4747 0001196  86.7644 273.3494 15.30199840 62585
STARLINK-32207          
1 60259U 24131E   25243.35031341  .00000742  00000+0  37168-4 0  9990
2 60259  53.1592 216.7767 0001240  82.0584 278.0557 15.30194230 62571
STARLINK-32125          
1 60260U 24131F   25243.36497233  .00000110  00000+0  15840-4 0  9991
2 60260  53.1598 216.1402 0001664  98.2930 261.8259 15.30198801 62581
STARLINK-32160          
1 60261U 24131G   25243.42089964  .00001176  00000+0  51827-4 0  9995
2 60261  53.1593 216.4889 0001263  84.6945 275.4200 15.30197046 62632
STARLINK-32163          
1 60262U 24131H   25243.19224451  .00000082  00000+0  14899-4 0  9995
2 60262  53.1596 217.1984 0001331  81.3175 278.7977 15.30193643 62552
STARLINK-32148          
1 60263U 24131J   25243.20174894 -.00006807  00000+0 -21783-3 0  9995
2 60263  53.1606 217.2561 0001182  75.8194 284.2939 15.30209354 62603
STARLINK-32121          
1 60264U 24131K   25243.33553778  .00000727  00000+0  36672-4 0  9999
2 60264  53.1593 216.6718 0000607  68.7064 291.4002 15.30189340 62629
STARLINK-32120          
1 60265U 24131L   25243.23340405  .00000380  00000+0  24967-4 0  9999
2 60265  53.1586 217.4509 0001555 141.7274 218.3837 15.30180138 62605
STARLINK-32205          
1 60266U 24131M   25243.21757170  .00000203  00000+0  18967-4 0  9996
2 60266  53.1591 217.3665 0001248  88.0622 272.0522 15.30199707 62557
STARLINK-32158          
1 60267U 24131N   25243.31548461  .00001489  00000+0  62404-4 0  9991
2 60267  53.1594 216.5426 0001351  86.8667 273.2488 15.30192326 62472
STARLINK-32167          
1 60268U 24131P   25243.36602983  .00000019  00000+0  12765-4 0  9990
2 60268  53.1597 216.1620 0001248  92.9090 267.2054 15.30195376 62583
STARLINK-32144          
1 60269U 24131Q   25243.32921093 -.00000619  00000+0 -87632-5 0  9997
2 60269  53.1594 216.6287 0001236  62.4041 297.7085 15.30187709 62628
STARLINK-32211          
1 60270U 24131R   25243.42301260  .00000960  00000+0  44533-4 0  9997
2 60270  53.1594 216.5173 0001173  89.0839 271.0296 15.30196502 62588
STARLINK-32164          
1 60271U 24131S   25243.36191566 -.00002894  00000+0 -85599-4 0  9994
2 60271  53.1595 216.8331 0001276 123.3783 236.7340 15.30208413 62474
STARLINK-32128          
1 60272U 24131T   25243.31232158  .00000485  00000+0  28511-4 0  9996
2 60272  53.1598 216.5251 0001154  96.8088 263.3044 15.30190342 62572
STARLINK-32206          
1 60273U 24131U   25243.35135625  .00002220  00000+0  87025-4 0  9996
2 60273  53.1583 216.7782 0001277  74.1966 285.9175 15.30206251 62570
STARLINK-32155          
1 60274U 24131V   25243.34503281  .00000253  00000+0  20673-4 0  9993
2 60274  53.1591 216.7281 0001253  81.6593 278.4550 15.30198169 62478
STARLINK-32152          
1 60275U 24131W   25243.30915694  .00000740  00000+0  37123-4 0  9994
2 60275  53.1602 216.5032 0001250  92.8855 267.2289 15.30186778 62474
STARLINK-32154          
1 60276U 24131X   25243.30282282  .00000730  00000+0  36790-4 0  9993
2 60276  53.1595 216.4603 0001207  95.9578 264.1560 15.30191301 62574
STARLINK-32135          
1 60277U 24131Y   25243.45033662  .00001628  00000+0  67097-4 0  9997
2 60277  53.1600 215.9589 0001545  98.2700 261.8476 15.30202318 62590
STARLINK-32156          
1 60278U 24132A   25243.31023269 -.00000111  00000+0  83865-5 0  9995
2 60278  53.1603 216.6381 0001442 101.3902 258.7261 15.30190406 63635
STARLINK-32010          
1 60279U 24132B   25243.34294895  .00000769  00000+0  38096-4 0  9997
2 60279  53.1597 216.8458 0001392  75.1972 284.9183 15.30184017 62414
STARLINK-32118          
1 60280U 24132C   25243.30389853  .00000241  00000+0  20251-4 0  9993
2 60280  53.1592 216.5973 0001127 104.2025 255.9101 15.30195637 62417
STARLINK-32038          
1 60281U 24132D   25243.30600880  .00001717  00000+0  70121-4 0  9990
2 60281  53.1594 216.6117 0001333  92.7207 267.3947 15.30189582 62410
STARLINK-32113          
1 60282U 24132E   25243.30706499  .00000182  00000+0  18276-4 0  9992
2 60282  53.1599 216.6180 0001249  97.8778 262.2365 15.30194464 62414
STARLINK-32037          
1 60283U 24132F   25243.32711476 -.00000596  00000+0 -80104-5 0  9997
2 60283  53.1599 216.7427 0001129  78.1561 281.9566 15.30193775 62414
STARLINK-32123          
1 60284U 24132G   25243.59204592 -.00000384  00000+0 -84256-6 0  9991
2 60284  53.1601 202.7846 0001118 102.2795 257.8331 15.30192407 62632
STARLINK-32122          
1 60285U 24132H   25243.45141300  .00000556  00000+0  30891-4 0  9997
2 60285  53.1604 216.0994 0001366  78.5937 281.5218 15.30192212 62436
STARLINK-31656          
1 60286U 24132J   25243.36288140  .00000330  00000+0  23285-4 0  9991
2 60286  53.1587 216.2618 0001185  89.7801 270.3336 15.30197684 62429
STARLINK-32114          
1 60287U 24132K   25243.34716294  .00001004  00000+0  46037-4 0  9995
2 60287  53.1594 216.8661 0001291  87.4193 272.6956 15.30199158 62419
STARLINK-31997          
1 60288U 24132L   25243.22275528  .00001028  00000+0  46832-4 0  9992
2 60288  53.1588 216.8015 0001172  87.4781 272.6354 15.30192308 62408
STARLINK-32000          
1 60289U 24132M   25243.33027096 -.00003321  00000+0 -99957-4 0  9996
2 60289  53.1594 216.7660 0001316  79.2305 280.8844 15.30223614 62413
STARLINK-32141          
1 60290U 24132N   25243.44508292  .00000048  00000+0  13760-4 0  9991
2 60290  53.1601 216.0572 0001523 104.5280 255.5890 15.30187198 62431
STARLINK-32142          
1 60291U 24132P   25243.35862956  .00005279  00000+0  19011-3 0  9997
2 60291  53.1600 216.2294 0001200  89.3083 270.8055 15.30222666 62429
STARLINK-32149          
1 60292U 24132Q   25243.20282323  .00000079  00000+0  14805-4 0  9996
2 60292  53.1600 217.3923 0001334  82.8021 277.3132 15.30186989 62390
STARLINK-32159          
1 60293U 24132R   25243.42185976  .00001423  00000+0  60153-4 0  9998
2 60293  53.1591 215.9111 0001197  87.7236 272.3902 15.30204584 62439
STARLINK-32150          
1 60294U 24132S   25243.40192836 -.00000290  00000+0  23521-5 0  9991
2 60294  53.1592 216.5009 0001402  79.6472 280.4687 15.30195809 62423
STARLINK-32126          
1 60295U 24132T   25243.34927782  .00000139  00000+0  16828-4 0  9993
2 60295  53.1593 216.8787 0001185  85.4222 274.6914 15.30195009 62416
STARLINK-32143          
1 60296U 24132U   25243.33977377  .00000513  00000+0  29460-4 0  9990
2 60296  53.1602 216.8240 0001432  85.7462 274.3702 15.30202882 62416
STARLINK-32034          
1 60297U 24132V   25243.32606859 -.00001698  00000+0 -45228-4 0  9991
2 60297  53.1599 216.7369 0001291  76.9556 283.1589 15.30179595 62417
STARLINK-32124          
1 60298U 24132W   25243.40403671  .00000219  00000+0  19533-4 0  9994
2 60298  53.1598 216.5126 0001364  82.8387 277.2769 15.30196591 62425
STARLINK-32151          
1 60299U 24132X   25243.53709314  .00000533  00000+0  30109-4 0  9993
2 60299  53.1603 187.2270 0001203  81.8099 278.3038 15.30195498 62840
STARLINK-32134          
1 60300U 24132Y   25243.31656722 -.00001127  00000+0 -25944-4 0  9999
2 60300  53.1604 216.6772 0001322  86.8548 273.2604 15.30189563 62416
STARLINK-11147 [DTC]    
1 60301U 24133A   25243.58894549 -.00000004  00000+0  48266-5 0  9996
2 60301  53.1596   3.5750 0001149  77.2175 282.8971 15.69707494 63878
STARLINK-11128 [DTC]    
1 60302U 24133B   25243.58403781 -.00000840  00000+0 -20707-5 0  9990
2 60302  53.1592   3.5392 0001196  88.2488 271.8666 15.69713898 63872
STARLINK-11227 [DTC]    
1 60303U 24133C   25243.57912823 -.00000628  00000+0 -31964-6 0  9994
2 60303  53.1592   3.5075 0001181 102.1769 257.9381 15.69720128 63955
STARLINK-11224 [DTC]    
1 60304U 24133D   25243.57422858 -.00000833  00000+0 -20152-5 0  9993
2 60304  53.1592   3.4751 0001042  66.9197 293.1931 15.69709073 63953
